IRIDIUM 155             
1 43573U 18061E   25087.42979557  .00000069  00000+0  17476-4 0  9991
2 43573  86.3942 242.8995 0001954  88.1650 271.9769 14.34217214349468
IRIDIUM 154             
1 43574U 18061F   25087.48053792  .00000338  00000+0  11369-3 0  9995
2 43574  86.3948 242.9900 0002131  94.5803 265.5636 14.34217895349525
IRIDIUM 163             
1 43575U 18061G   25087.39174214  .00000017  00000+0 -92120-6 0  9991
2 43575  86.3942 242.9563 0002224  91.1172 269.0279 14.34217233349483
IRIDIUM 156             
1 43576U 18061H   25087.43613693  .00000773  00000+0  26907-3 0  9991
2 43576  86.3945 242.9449 0001764  86.9178 273.2220 14.34215661349482
IRIDIUM 164             
1 43577U 18061J   25087.48687624  .00000292  00000+0  97060-4 0  9997
2 43577  86.3947 242.9567 0002011 101.0218 259.1204 14.34215170349532
IRIDIUM 159             
1 43578U 18061K   25087.45516727  .00000312  00000+0  10452-3 0  9992
2 43578  86.3940 242.9159 0002213  95.7738 264.3710 14.34216884349491
IRIDIUM 180             
1 43922U 19002A   25087.31512787  .00000602  00000+0  20783-3 0  9998
2 43922  86.4041 179.9372 0002266  93.7032 266.4423 14.34219192325084
IRIDIUM 176             
1 43923U 19002B   25087.35880288  .00002689  00000+0  42244-3 0  9990
2 43923  86.6170 179.9190 0002763  86.7739 273.3794 14.72261947333653
IRIDIUM 168             
1 43924U 19002C   25087.30878311  .00000604  00000+0  20874-3 0  9990
2 43924  86.4015 180.0003 0003243 113.8828 246.2708 14.34220296325061
IRIDIUM 173             
1 43925U 19002D   25087.29608625  .00000717  00000+0  24898-3 0  9993
2 43925  86.3953 179.9042 0003015 107.0879 253.0647 14.34214312325048
IRIDIUM 169             
1 43926U 19002E   25087.39978661  .00000868  00000+0  27724-3 0  9993
2 43926  86.4268 211.4385 0002264  53.2166 306.9240 14.38622911326137
IRIDIUM 172             
1 43927U 19002F   25087.35952449  .00000081  00000+0  21961-4 0  9991
2 43927  86.4042 179.8980 0002650  98.2140 261.9357 14.34220459325063
IRIDIUM 175             
1 43928U 19002G   25087.21768026  .00002521  00000+0  39588-3 0  9997
2 43928  86.1506 137.1292 0001394  77.5105 282.6267 14.72237337333620
IRIDIUM 171             
1 43929U 19002H   25087.34049888  .00000649  00000+0  22465-3 0  9995
2 43929  86.4054 180.1617 0001905 105.3105 254.8301 14.34216435325051
IRIDIUM 170             
1 43930U 19002J   25087.29701063  .00002805  00000+0  44102-3 0  9999
2 43930  86.6138 179.9448 0002974 112.6775 247.4757 14.72239987333654
IRIDIUM 167             
1 43931U 19002K   25087.33415259  .00000843  00000+0  29402-3 0  9990
2 43931  86.4043 179.9263 0001677  97.0323 263.1063 14.34215423325054
IRIDIUM 181             
1 56726U 23068S   25087.45710836  .00000990  00000+0  28832-3 0  9994
2 56726  86.4485 242.9368 0001776 107.9129 252.2265 14.43287867 98143
IRIDIUM 177             
1 56727U 23068T   25087.28720195  .00003825  00000+0  49970-3 0  9991
2 56727  86.2041 180.5003 0001804 110.1557 249.9858 14.80241157100403
IRIDIUM 174             
1 56728U 23068U   25087.34936490  .00004105  00000+0  53691-3 0  9993
2 56728  86.2041 180.5964 0002662 100.6421 259.5100 14.80206553100416
IRIDIUM 178             
1 56729U 23068V   25087.41149863  .00004157  00000+0  54366-3 0  9999
2 56729  86.6591 211.5143 0002158 105.6865 254.4595 14.80228083100427
IRIDIUM 179             
1 56730U 23068W   25087.40613455  .00003865  00000+0  50558-3 0  9997
2 56730  86.6816 219.1478 0002280  81.7476 278.4004 14.80194052100421
